CCSDS_OMM_VERS = 2.0
CREATION_DATE  = 
ORIGINATOR     = 

OBJECT_NAME    = SL-14 R/B
OBJECT_ID      = 1986-046B
CENTER_NAME    = EARTH
REF_FRAME      = TEME
TIME_SYSTEM    = UTC
MEAN_ELEMENT_THEORY = SGP/SGP4

EPOCH          = 2026-03-14T06:03:57.974976
MEAN_MOTION    = 14.85595243
ECCENTRICITY   = .00222821
INCLINATION    = 82.4783
RA_OF_ASC_NODE = 75.8687
ARG_OF_PERICENTER = 209.6238
MEAN_ANOMALY   = 150.3718

EPHEMERIS_TYPE = 0
CLASSIFICATION_TYPE = U
NORAD_CAT_ID   = 16792
ELEMENT_SET_NO = 999
REV_AT_EPOCH   = 12708
BSTAR          = .59720828E-4
MEAN_MOTION_DOT = .543E-5
MEAN_MOTION_DDOT = 0

CCSDS_OMM_VERS = 2.0
CREATION_DATE  = 
ORIGINATOR     = 

OBJECT_NAME    = SL-14 R/B
OBJECT_ID      = 1986-055B
CENTER_NAME    = EARTH
REF_FRAME      = TEME
TIME_SYSTEM    = UTC
MEAN_ELEMENT_THEORY = SGP/SGP4

EPOCH          = 2026-03-14T05:59:31.539840
MEAN_MOTION    = 14.85647057
ECCENTRICITY   = .00178202
INCLINATION    = 82.5192
RA_OF_ASC_NODE = 122.3879
ARG_OF_PERICENTER = 320.8180
MEAN_ANOMALY   = 108.5591

EPHEMERIS_TYPE = 0
CLASSIFICATION_TYPE = U
NORAD_CAT_ID   = 16882
ELEMENT_SET_NO = 999
REV_AT_EPOCH   = 12004
BSTAR          = .50170466E-4
MEAN_MOTION_DOT = .46E-5
MEAN_MOTION_DDOT = 0

CCSDS_OMM_VERS = 2.0
CREATION_DATE  = 
ORIGINATOR     = 

OBJECT_NAME    = AJISAI (EGS)
OBJECT_ID      = 1986-061A
CENTER_NAME    = EARTH
REF_FRAME      = TEME
TIME_SYSTEM    = UTC
MEAN_ELEMENT_THEORY = SGP/SGP4

EPOCH          = 2026-03-14T07:20:25.905696
MEAN_MOTION    = 12.44515659
ECCENTRICITY   = .00112834
INCLINATION    = 50.0082
RA_OF_ASC_NODE = 79.1521
ARG_OF_PERICENTER = 298.9090
MEAN_ANOMALY   = 188.1058

EPHEMERIS_TYPE = 0
CLASSIFICATION_TYPE = U
NORAD_CAT_ID   = 16908
ELEMENT_SET_NO = 999
REV_AT_EPOCH   = 46857
BSTAR          = .38117086E-4
MEAN_MOTION_DOT = -.92E-6
MEAN_MOTION_DDOT = 0

CCSDS_OMM_VERS = 2.0
CREATION_DATE  = 
ORIGINATOR     = 

OBJECT_NAME    = SL-14 R/B
OBJECT_ID      = 1987-024B
CENTER_NAME    = EARTH
REF_FRAME      = TEME
TIME_SYSTEM    = UTC
MEAN_ELEMENT_THEORY = SGP/SGP4

EPOCH          = 2026-03-14T06:49:39.931680
MEAN_MOTION    = 14.86136792
ECCENTRICITY   = .00168072
INCLINATION    = 82.5245
RA_OF_ASC_NODE = 88.4438
ARG_OF_PERICENTER = 243.3928
MEAN_ANOMALY   = 116.5567

EPHEMERIS_TYPE = 0
CLASSIFICATION_TYPE = U
NORAD_CAT_ID   = 17567
ELEMENT_SET_NO = 999
REV_AT_EPOCH   = 8881
BSTAR          = .56470675E-4
MEAN_MOTION_DOT = .52E-5
MEAN_MOTION_DDOT = 0

CCSDS_OMM_VERS = 2.0
CREATION_DATE  = 
ORIGINATOR     = 

OBJECT_NAME    = COSMOS 1833
OBJECT_ID      = 1987-027A
CENTER_NAME    = EARTH
REF_FRAME      = TEME
TIME_SYSTEM    = UTC
MEAN_ELEMENT_THEORY = SGP/SGP4

EPOCH          = 2026-03-14T02:35:01.537152
MEAN_MOTION    = 14.13053591
ECCENTRICITY   = .00240387
INCLINATION    = 70.9213
RA_OF_ASC_NODE = 316.7340
ARG_OF_PERICENTER = 208.2978
MEAN_ANOMALY   = 151.6839

EPHEMERIS_TYPE = 0
CLASSIFICATION_TYPE = U
NORAD_CAT_ID   = 17589
ELEMENT_SET_NO = 999
REV_AT_EPOCH   = 1094
BSTAR          = -.80683721E-4
MEAN_MOTION_DOT = -.199E-5
MEAN_MOTION_DDOT = 0

CCSDS_OMM_VERS = 2.0
CREATION_DATE  = 
ORIGINATOR     = 

OBJECT_NAME    = SL-16 R/B
OBJECT_ID      = 1987-027B
CENTER_NAME    = EARTH
REF_FRAME      = TEME
TIME_SYSTEM    = UTC
MEAN_ELEMENT_THEORY = SGP/SGP4

EPOCH          = 2026-03-14T06:43:35.923296
MEAN_MOTION    = 14.17166628
ECCENTRICITY   = .00031917
INCLINATION    = 70.9993
RA_OF_ASC_NODE = 266.8207
ARG_OF_PERICENTER = 132.3649
MEAN_ANOMALY   = 227.7746

EPHEMERIS_TYPE = 0
CLASSIFICATION_TYPE = U
NORAD_CAT_ID   = 17590
ELEMENT_SET_NO = 999
REV_AT_EPOCH   = 1599
BSTAR          = .42045188E-4
MEAN_MOTION_DOT = .37E-6
MEAN_MOTION_DDOT = 0

CCSDS_OMM_VERS = 2.0
CREATION_DATE  = 
ORIGINATOR     = 

OBJECT_NAME    = SL-14 R/B
OBJECT_ID      = 1987-038B
CENTER_NAME    = EARTH
REF_FRAME      = TEME
TIME_SYSTEM    = UTC
MEAN_ELEMENT_THEORY = SGP/SGP4

EPOCH          = 2026-03-14T01:54:48.977856
MEAN_MOTION    = 14.85373431
ECCENTRICITY   = .00200405
INCLINATION    = 82.4994
RA_OF_ASC_NODE = 292.6717
ARG_OF_PERICENTER = 146.4109
MEAN_ANOMALY   = 213.8382

EPHEMERIS_TYPE = 0
CLASSIFICATION_TYPE = U
NORAD_CAT_ID   = 17912
ELEMENT_SET_NO = 999
REV_AT_EPOCH   = 7988
BSTAR          = .52691304E-4
MEAN_MOTION_DOT = .479E-5
MEAN_MOTION_DDOT = 0

CCSDS_OMM_VERS = 2.0
CREATION_DATE  = 
ORIGINATOR     = 

OBJECT_NAME    = COSMOS 1844
OBJECT_ID      = 1987-041A
CENTER_NAME    = EARTH
REF_FRAME      = TEME
TIME_SYSTEM    = UTC
MEAN_ELEMENT_THEORY = SGP/SGP4

EPOCH          = 2026-03-14T06:42:34.652736
MEAN_MOTION    = 14.14551309
ECCENTRICITY   = .00302623
INCLINATION    = 70.9004
RA_OF_ASC_NODE = 24.4939
ARG_OF_PERICENTER = 11.1027
MEAN_ANOMALY   = 349.0755

EPHEMERIS_TYPE = 0
CLASSIFICATION_TYPE = U
NORAD_CAT_ID   = 17973
ELEMENT_SET_NO = 999
REV_AT_EPOCH   = 423
BSTAR          = -.353562E-4
MEAN_MOTION_DOT = -.117E-5
MEAN_MOTION_DDOT = 0

CCSDS_OMM_VERS = 2.0
CREATION_DATE  = 
ORIGINATOR     = 

OBJECT_NAME    = SL-14 R/B
OBJECT_ID      = 1987-055B
CENTER_NAME    = EARTH
REF_FRAME      = TEME
TIME_SYSTEM    = UTC
MEAN_ELEMENT_THEORY = SGP/SGP4

EPOCH          = 2026-03-14T06:11:24.805536
MEAN_MOTION    = 14.85635202
ECCENTRICITY   = .0020741
INCLINATION    = 82.5029
RA_OF_ASC_NODE = 344.7271
ARG_OF_PERICENTER = 2.9656
MEAN_ANOMALY   = 357.1679

EPHEMERIS_TYPE = 0
CLASSIFICATION_TYPE = U
NORAD_CAT_ID   = 18153
ELEMENT_SET_NO = 999
REV_AT_EPOCH   = 7061
BSTAR          = .6189435E-4
MEAN_MOTION_DOT = .562E-5
MEAN_MOTION_DDOT = 0

CCSDS_OMM_VERS = 2.0
CREATION_DATE  = 
ORIGINATOR     = 

OBJECT_NAME    = COSMOS 1867
OBJECT_ID      = 1987-060A
CENTER_NAME    = EARTH
REF_FRAME      = TEME
TIME_SYSTEM    = UTC
MEAN_ELEMENT_THEORY = SGP/SGP4

EPOCH          = 2026-03-13T23:34:28.211808
MEAN_MOTION    = 14.31503731
ECCENTRICITY   = .00145415
INCLINATION    = 65.0105
RA_OF_ASC_NODE = 294.6843
ARG_OF_PERICENTER = 278.8623
MEAN_ANOMALY   = 81.0815

EPHEMERIS_TYPE = 0
CLASSIFICATION_TYPE = U
NORAD_CAT_ID   = 18187
ELEMENT_SET_NO = 999
REV_AT_EPOCH   = 2055
BSTAR          = .31104067E-4
MEAN_MOTION_DOT = -.17E-6
MEAN_MOTION_DDOT = 0

CCSDS_OMM_VERS = 2.0
CREATION_DATE  = 
ORIGINATOR     = 

OBJECT_NAME    = SL-14 R/B
OBJECT_ID      = 1988-001B
CENTER_NAME    = EARTH
REF_FRAME      = TEME
TIME_SYSTEM    = UTC
MEAN_ELEMENT_THEORY = SGP/SGP4

EPOCH          = 2026-03-14T07:42:07.551072
MEAN_MOTION    = 14.85534019
ECCENTRICITY   = .00171289
INCLINATION    = 82.5158
RA_OF_ASC_NODE = 191.0053
ARG_OF_PERICENTER = 219.4019
MEAN_ANOMALY   = 140.5953

EPHEMERIS_TYPE = 0
CLASSIFICATION_TYPE = U
NORAD_CAT_ID   = 18749
ELEMENT_SET_NO = 999
REV_AT_EPOCH   = 4271
BSTAR          = .7003184E-4
MEAN_MOTION_DOT = .63E-5
MEAN_MOTION_DDOT = 0

CCSDS_OMM_VERS = 2.0
CREATION_DATE  = 
ORIGINATOR     = 

OBJECT_NAME    = COSMOS 1933
OBJECT_ID      = 1988-020A
CENTER_NAME    = EARTH
REF_FRAME      = TEME
TIME_SYSTEM    = UTC
MEAN_ELEMENT_THEORY = SGP/SGP4

EPOCH          = 2026-03-13T22:37:50.174976
MEAN_MOTION    = 15.18029252
ECCENTRICITY   = .00042616
INCLINATION    = 82.5105
RA_OF_ASC_NODE = 246.7029
ARG_OF_PERICENTER = 168.4222
MEAN_ANOMALY   = 191.7111

EPHEMERIS_TYPE = 0
CLASSIFICATION_TYPE = U
NORAD_CAT_ID   = 18958
ELEMENT_SET_NO = 999
REV_AT_EPOCH   = 5087
BSTAR          = .26023532E-3
MEAN_MOTION_DOT = .5325E-4
MEAN_MOTION_DDOT = 0

