SL-14 R/B               
1 16792U 86046B   26073.25275434  .00000543  00000+0  59721-4 0  9998
2 16792  82.4783  75.8687 0022282 209.6238 150.3718 14.85595243127085
SL-14 R/B               
1 16882U 86055B   26073.24967060  .00000460  00000+0  50170-4 0  9997
2 16882  82.5192 122.3879 0017820 320.8180 108.5591 14.85647057120049
AJISAI (EGS)            
1 16908U 86061A   26073.30585539 -.00000092  00000+0  38117-4 0  9996
2 16908  50.0082  79.1521 0011283 298.9090 188.1058 12.44515659468571
SL-14 R/B               
1 17567U 87024B   26073.28448995  .00000520  00000+0  56471-4 0  9997
2 17567  82.5245  88.4438 0016807 243.3928 116.5567 14.86136792 88815
COSMOS 1833             
1 17589U 87027A   26073.10765668 -.00000199  00000+0 -80684-4 0  9991
2 17589  70.9213 316.7340 0024038 208.2978 151.6839 14.13053591 10940
SL-16 R/B               
1 17590U 87027B   26073.28027689  .00000037  00000+0  42045-4 0  9994
2 17590  70.9993 266.8207 0003191 132.3649 227.7746 14.17166628 15995
SL-14 R/B               
1 17912U 87038B   26073.07973354  .00000479  00000+0  52691-4 0  9998
2 17912  82.4994 292.6717 0020040 146.4109 213.8382 14.85373431 79881
COSMOS 1844             
1 17973U 87041A   26073.27956774 -.00000117  00000+0 -35356-4 0  9998
2 17973  70.9004  24.4939 0030262  11.1027 349.0755 14.14551309  4230
SL-14 R/B               
1 18153U 87055B   26073.25792599  .00000562  00000+0  61894-4 0  9993
2 18153  82.5029 344.7271 0020741   2.9656 357.1679 14.85635202 70614
COSMOS 1867             
1 18187U 87060A   26072.98227097 -.00000017  00000+0  31104-4 0  9998
2 18187  65.0105 294.6843 0014541 278.8623  81.0815 14.31503731 20554
SL-14 R/B               
1 18749U 88001B   26073.32092073  .00000630  00000+0  70032-4 0  9994
2 18749  82.5158 191.0053 0017128 219.4019 140.5953 14.85534019 42715
COSMOS 1933             
1 18958U 88020A   26072.94294184  .00005325  00000+0  26024-3 0  9998
2 18958  82.5105 246.7029 0004261 168.4222 191.7111 15.18029252 50878
